      2.10          N: GNSS NAV DATA                        RINEX VERSION / TYPE
fic2rin                                 06/15/2023 00:15:42 PGM / RUN BY / DATE
                                                            END OF HEADER
6  23  6 14  1 59 44.0  .585138797760D-03 -.193267624127D-11  .000000000000D+00
     .100000000000D+02 -.104812500000D+03  .365050920122D-08  .627491346219D+00
    -.523962080479D-05  .272497581318D-02  .836700201035D-05  .515368792343D+04
     .266384000000D+06  .186264514923D-07  .201034482748D+01 -.782310962677D-07
     .989117964528D+00  .229843750000D+03 -.743570855865D+00 -.778639576321D-08
    -.375015620906D-10  .100000000000D+01  .226600000000D+04  .000000000000D+00
     .240000000000D+01  .000000000000D+00  .372529029846D-08  .100000000000D+02
     .259200000000D+06  .400000000000D+01
31 23  6 14 22  0  0.0 -.218176282942D-03 -.795807864051D-12  .000000000000D+00
     .480000000000D+02 -.559375000000D+01  .456769026263D-08  .310487442360D+01
    -.448897480965D-06  .103278236929D-01  .957958400249D-05  .515357632446D+04
     .338400000000D+06 -.242143869400D-07 -.111899529910D+01 -.141561031342D-06
     .954124023415D+00  .189406250000D+03  .543787331336D+00 -.781068248913D-08
    -.651812864908D-09  .100000000000D+01  .226600000000D+04  .000000000000D+00
     .240000000000D+01  .000000000000D+00 -.135041773319D-07  .480000000000D+02
     .334020000000D+06  .400000000000D+01
30 23  6 14 22  0  0.0 -.511005055159D-03  .250111042988D-11  .000000000000D+00
     .470000000000D+02 -.191250000000D+02  .499199365086D-08 -.235624908776D+01
    -.105798244476D-05  .655429426115D-02  .909902155399D-05  .515358143806D+04
     .338400000000D+06 -.447034835815D-07 -.113323687829D+01 -.465661287308D-07
     .935166065100D+00  .189468750000D+03 -.257312883180D+01 -.808497962900D-08
    -.529307762079D-09  .100000000000D+01  .226600000000D+04  .000000000000D+00
     .240000000000D+01  .000000000000D+00  .372529029846D-08  .470000000000D+02
     .334500000000D+06  .400000000000D+01
15 23  6 14 22  0  0.0  .488902442157D-04  .352429196937D-11  .000000000000D+00
     .320000000000D+02  .103125000000D+02  .577095466914D-08 -.386330260526D+00
     .741332769394D-06  .149639416486D-01  .539422035217D-05  .515372598839D+04
     .338400000000D+06 -.121071934700D-06 -.233011739758D+01  .968575477600D-07
     .932455851363D+00  .259000000000D+03  .120374888895D+01 -.887644116798D-08
     .125719522437D-09  .100000000000D+01  .226600000000D+04  .000000000000D+00
     .240000000000D+01  .000000000000D+00 -.107102096081D-07  .320000000000D+02
     .334680000000D+06  .400000000000D+01
13 23  6 14 22  0  0.0  .534045975655D-03  .522959453519D-11  .000000000000D+00
     .570000000000D+02 -.334375000000D+01  .484270171796D-08  .199943923256D+00
    -.186264514923D-08  .703733752016D-02  .523030757904D-05  .515366139603D+04
     .338400000000D+06 -.372529029846D-08 -.205066338956D+01  .186264514923D-07
     .969555203695D+00  .279312500000D+03  .907662599562D+00 -.827105880851D-08
    -.152863510236D-09  .100000000000D+01  .226600000000D+04  .000000000000D+00
     .240000000000D+01  .000000000000D+00 -.111758708954D-07  .570000000000D+02
     .335100000000D+06  .400000000000D+01
32 23  6 14 22  0  0.0 -.500265974551D-03 -.841282599140D-11  .000000000000D+00
     .580000000000D+02  .196875000000D+01  .501985195413D-08  .121066809209D+01
     .154599547386D-06  .694136845414D-02  .583380460739D-05  .515374558067D+04
     .338400000000D+06 -.115483999252D-06 -.219800783873D+01  .800937414169D-07
     .959601336459D+00  .270218750000D+03 -.220000149471D+01 -.827248743945D-08
    -.117862052285D-10  .100000000000D+01  .226600000000D+04  .000000000000D+00
     .240000000000D+01  .000000000000D+00  .465661287308D-09  .580000000000D+02
     .335490000000D+06  .400000000000D+01
5  23  6 14 22  0  0.0 -.131120905280D-03 -.147792889038D-11  .000000000000D+00
     .117000000000D+03 -.276562500000D+02  .444804242168D-08  .977191087474D+00
    -.127777457237D-05  .600927590858D-02  .108815729618D-04  .515368523216D+04
     .338400000000D+06 -.111758708954D-06  .300153083737D+01  .651925802231D-07
     .966654869124D+00  .176625000000D+03  .116005385050D+01 -.793390190743D-08
     .370372570361D-09  .100000000000D+01  .226600000000D+04  .000000000000D+00
     .240000000000D+01  .000000000000D+00 -.111758708954D-07  .117000000000D+03
     .335760000000D+06  .400000000000D+01
29 23  6 14 22  0  0.0 -.602794345468D-03 -.113686837722D-11  .000000000000D+00
     .320000000000D+02  .138750000000D+02  .436982487789D-08  .633046719108D+00
     .797212123871D-06  .259415130131D-02  .146776437759D-05  .515375306511D+04
     .338400000000D+06  .186264514923D-08  .102862407750D+01 -.856816768646D-07
     .976189689327D+00  .357281250000D+03  .242553860654D+01 -.832498962638D-08
     .169292766009D-09  .100000000000D+01  .226600000000D+04  .000000000000D+00
     .240000000000D+01  .000000000000D+00 -.102445483208D-07  .320000000000D+02
     .335760000000D+06  .400000000000D+01
26 23  6 14 22  0  0.0  .239027664065D-03 -.795807864051D-12  .000000000000D+00
     .880000000000D+02  .121125000000D+03  .477091301339D-08  .240775765506D+01
     .617839396000D-05  .791412161198D-02  .987388193607D-05  .515371074486D+04
     .338400000000D+06 -.894069671631D-07 -.163011026132D+00 -.689178705215D-07
     .934103869541D+00  .173843750000D+03  .463789765700D+00 -.813712465819D-08
     .260725145963D-10  .100000000000D+01  .226600000000D+04  .000000000000D+00
     .240000000000D+01  .000000000000D+00  .698491930962D-08  .880000000000D+02
     .335790000000D+06  .400000000000D+01
1  23  6 14 22  0  0.0  .178377144039D-03 -.238742359215D-11  .000000000000D+00
     .350000000000D+02 -.120750000000D+03  .385373195198D-08 -.161916188336D+01
    -.615045428276D-05  .129251151811D-01  .612437725067D-05  .515364557076D+04
     .338400000000D+06  .283122062683D-06  .201811877708D+01 -.186264514923D-07
     .989901624873D+00  .270812500000D+03  .974227007711D+00 -.771496421637D-08
    -.589310261424D-10  .100000000000D+01  .226600000000D+04  .000000000000D+00
     .340000000000D+01  .000000000000D+00  .465661287308D-08  .350000000000D+02
     .336000000000D+06  .400000000000D+01
10 23  6 14 22  0  0.0 -.411770306528D-04 -.159161572810D-11  .000000000000D+00
     .380000000000D+02 -.295937500000D+02  .403052503040D-08  .257507142170D+01
    -.154227018356D-05  .851997488644D-02  .110659748316D-04  .515368887138D+04
     .338400000000D+06 -.316649675369D-07  .304568047615D+01 -.949949026108D-07
     .979367567253D+00  .176437500000D+03 -.243544316319D+01 -.747423990352D-08
     .489306095849D-09  .100000000000D+01  .226600000000D+04  .000000000000D+00
     .240000000000D+01  .000000000000D+00  .232830643654D-08  .380000000000D+02
     .336900000000D+06  .400000000000D+01
19 23  6 14 21 59 44.0  .330630224198D-03  .511590769747D-11  .000000000000D+00
     .800000000000D+01  .220000000000D+02  .440768359771D-08  .269253010175D+01
     .966712832451D-06  .947087490931D-02  .957399606705D-06  .515362962151D+04
     .338384000000D+06  .122934579849D-06  .105903099216D+01  .165775418282D-06
     .972975103861D+00  .362750000000D+03  .232380120634D+01 -.821534220198D-08
     .110004582132D-09  .100000000000D+01  .226600000000D+04  .000000000000D+00
     .240000000000D+01  .000000000000D+00 -.153668224812D-07  .800000000000D+01
     .336960000000D+06  .400000000000D+01
1  23  6 15  0  0  0.0  .178359914571D-03 -.238742359215D-11  .000000000000D+00
     .760000000000D+02 -.118718750000D+03  .392516349881D-08 -.569035841781D+00
    -.591948628426D-05  .129246792058D-01  .697001814842D-05  .515364370155D+04
     .345600000000D+06  .223517417908D-07  .201806240207D+01  .189989805222D-06
     .989899553381D+00  .264125000000D+03  .974294954404D+00 -.802926302246D-08
    -.113219001740D-09  .100000000000D+01  .226600000000D+04  .000000000000D+00
     .340000000000D+01  .000000000000D+00  .465661287308D-08  .760000000000D+02
     .338400000000D+06  .400000000000D+01
8  23  6 15  0  0  0.0 -.127426348627D-03 -.181898940355D-11  .000000000000D+00
     .140000000000D+02  .460000000000D+02  .472948271622D-08  .162057400892D+01
     .233761966228D-05  .845327903517D-02  .123120844364D-05  .515370908928D+04
     .345600000000D+06 -.102445483208D-06  .925080296782D+00  .819563865662D-07
     .958407703562D+00  .354843750000D+03  .270681855283D+00 -.852142638018D-08
     .553594488004D-10  .100000000000D+01  .226600000000D+04  .000000000000D+00
     .240000000000D+01  .000000000000D+00  .512227416039D-08  .140000000000D+02
     .338400000000D+06  .400000000000D+01
4  23  6 15  0  0  0.0  .685001723468D-04  .103455022327D-10  .000000000000D+00
     .134000000000D+03  .234375000000D+01  .503092384389D-08  .116368382131D+01
     .294297933578D-06  .240171339829D-02  .545941293240D-05  .515364964104D+04
     .345600000000D+06  .651925802231D-07 -.215446682068D+01 -.223517417908D-07
     .962650831620D+00  .272500000000D+03 -.297825056763D+01 -.821748514838D-08
     .353586156854D-10  .100000000000D+01  .226600000000D+04  .000000000000D+00
     .240000000000D+01  .000000000000D+00 -.465661287308D-08  .134000000000D+03
     .338400000000D+06  .400000000000D+01
11 23  6 15  0  0  0.0 -.235802493989D-03 -.150066625793D-10  .000000000000D+00
     .210000000000D+02 -.115281250000D+03  .438696844913D-08  .107099256085D+01
    -.622496008873D-05  .898595782928D-03  .619888305664D-05  .515376264191D+04
     .345600000000D+06 -.111758708954D-07  .205064149260D+01 -.130385160446D-07
     .965351575888D+00  .264312500000D+03 -.288880030416D+01 -.807212195057D-08
    -.875036448780D-10  .100000000000D+01  .226600000000D+04  .000000000000D+00
     .240000000000D+01  .000000000000D+00 -.884756445885D-08  .533000000000D+03
     .338400000000D+06  .400000000000D+01
